[{"OBJECT_NAME":"STARLINK-5295","OBJECT_ID":"2023-010AP","EPOCH":"2026-03-09T22:06:42.162912","MEAN_MOTION":14.98329749,"ECCENTRICITY":0.00027982,"INCLINATION":70.0015,"RA_OF_ASC_NODE":4.0078,"ARG_OF_PERICENTER":271.93,"MEAN_ANOMALY":88.1538,"EPHEMERIS_TYPE":0,"CLASSIFICATION_TYPE":"U","NORAD_CAT_ID":55306,"ELEMENT_SET_NO":999,"REV_AT_EPOCH":17380,"BSTAR":-1.523871e-5,"MEAN_MOTION_DOT":-2.75e-6,"MEAN_MOTION_DDOT":0},{"OBJECT_NAME":"SL-8 DEB","OBJECT_ID":"1971-114C","EPOCH":"2026-03-09T10:06:38.914272","MEAN_MOTION":14.97936297,"ECCENTRICITY":0.00069633,"INCLINATION":74.0033,"RA_OF_ASC_NODE":186.861,"ARG_OF_PERICENTER":298.1447,"MEAN_ANOMALY":61.9034,"EPHEMERIS_TYPE":0,"CLASSIFICATION_TYPE":"U","NORAD_CAT_ID":5778,"ELEMENT_SET_NO":999,"REV_AT_EPOCH":88447,"BSTAR":0.0010014796,"MEAN_MOTION_DOT":0.00011794,"MEAN_MOTION_DDOT":0}]
